<?xml version="1.0" encoding="UTF-8"?>
<kml xmlns="http://www.opengis.net/kml/2.2" xmlns:gx="http://www.google.com/kml/ext/2.2" xmlns:kml="http://www.opengis.net/kml/2.2" xmlns:atom="http://www.w3.org/2005/Atom">
<Document>
	<name>Sample Points.kml</name>
	<StyleMap id="m_ylw-pushpin">
		<Pair>
			<key>normal</key>
			<styleUrl>#s_ylw-pushpin</styleUrl>
		</Pair>
		<Pair>
			<key>highlight</key>
			<styleUrl>#s_ylw-pushpin_hl</styleUrl>
		</Pair>
	</StyleMap>
	<Style id="s_ylw-pushpin">
		<IconStyle>
			<scale>1.1</scale>
			<Icon>
				<href>http://maps.google.com/mapfiles/kml/paddle/ltblu-square.png</href>
			</Icon>
			<hotSpot x="32" y="1" xunits="pixels" yunits="pixels"/>
		</IconStyle>
		<ListStyle>
			<ItemIcon>
				<href>http://maps.google.com/mapfiles/kml/paddle/ltblu-square-lv.png</href>
			</ItemIcon>
		</ListStyle>
	</Style>
	<Style id="s_ylw-pushpin_hl">
		<IconStyle>
			<scale>1.3</scale>
			<Icon>
				<href>http://maps.google.com/mapfiles/kml/paddle/ltblu-square.png</href>
			</Icon>
			<hotSpot x="32" y="1" xunits="pixels" yunits="pixels"/>
		</IconStyle>
		<ListStyle>
			<ItemIcon>
				<href>http://maps.google.com/mapfiles/kml/paddle/ltblu-square-lv.png</href>
			</ItemIcon>
		</ListStyle>
	</Style>
	<Placemark>
		<name>Sample Points</name>
		<snippet></snippet>
		<LookAt>
			<longitude>29.84720981315315</longitude>
			<latitude>-20.32111809876568</latitude>
			<altitude>0</altitude>
			<heading>-10.2215398794231</heading>
			<tilt>16.22518324227494</tilt>
			<range>542.4578377131207</range>
			<gx:altitudeMode>relativeToSeaFloor</gx:altitudeMode>
		</LookAt>
		<styleUrl>#m_ylw-pushpin</styleUrl>
		<MultiGeometry>
			<Point>
				<gx:drawOrder>1</gx:drawOrder>
				<coordinates>29.84738308469088,-20.31960296908901,0</coordinates>
			</Point>
			<Point>
				<gx:drawOrder>1</gx:drawOrder>
				<coordinates>29.84747432518516,-20.32095970443393,0</coordinates>
			</Point>
			<Point>
				<gx:drawOrder>1</gx:drawOrder>
				<coordinates>29.84650027964715,-20.32086832545625,0</coordinates>
			</Point>
			<Point>
				<gx:drawOrder>1</gx:drawOrder>
				<coordinates>29.84585866450616,-20.32125259730822,0</coordinates>
			</Point>
			<Point>
				<gx:drawOrder>1</gx:drawOrder>
				<coordinates>29.84798411882432,-20.3202018394373,0</coordinates>
			</Point>
			<Point>
				<gx:drawOrder>1</gx:drawOrder>
				<coordinates>29.84487561279328,-20.32071574389207,0</coordinates>
			</Point>
			<Point>
				<gx:drawOrder>1</gx:drawOrder>
				<coordinates>29.8458153067859,-20.31937139207565,0</coordinates>
			</Point>
			<Point>
				<gx:drawOrder>1</gx:drawOrder>
				<coordinates>29.84534020955021,-20.320002689361,0</coordinates>
			</Point>
			<Point>
				<gx:drawOrder>1</gx:drawOrder>
				<coordinates>29.84458602462903,-20.31963715598408,0</coordinates>
			</Point>
			<Point>
				<gx:drawOrder>1</gx:drawOrder>
				<coordinates>29.84361051198307,-20.32070771292853,0</coordinates>
			</Point>
			<Point>
				<gx:drawOrder>1</gx:drawOrder>
				<coordinates>29.84346411099252,-20.31977231952839,0</coordinates>
			</Point>
			<Point>
				<gx:drawOrder>1</gx:drawOrder>
				<coordinates>29.84479869824299,-20.31864635260055,0</coordinates>
			</Point>
			<Point>
				<gx:drawOrder>1</gx:drawOrder>
				<coordinates>29.84388931258364,-20.31849507345491,0</coordinates>
			</Point>
			<Point>
				<gx:drawOrder>1</gx:drawOrder>
				<coordinates>29.84170293828639,-20.31780563121549,0</coordinates>
			</Point>
			<Point>
				<gx:drawOrder>1</gx:drawOrder>
				<coordinates>29.84542816589016,-20.3171756876101,0</coordinates>
			</Point>
			<Point>
				<gx:drawOrder>1</gx:drawOrder>
				<coordinates>29.84207102860627,-20.31598845869244,0</coordinates>
			</Point>
			<Point>
				<gx:drawOrder>1</gx:drawOrder>
				<coordinates>29.84031565746799,-20.31497368118418,0</coordinates>
			</Point>
			<Point>
				<gx:drawOrder>1</gx:drawOrder>
				<coordinates>29.84060202831191,-20.31587376550816,0</coordinates>
			</Point>
			<Point>
				<gx:drawOrder>1</gx:drawOrder>
				<coordinates>29.83903499741792,-20.31427492554117,0</coordinates>
			</Point>
			<Point>
				<gx:drawOrder>1</gx:drawOrder>
				<coordinates>29.84034751322894,-20.31402181481237,0</coordinates>
			</Point>
			<Point>
				<gx:drawOrder>1</gx:drawOrder>
				<coordinates>29.83458012675938,-20.318665538974,0</coordinates>
			</Point>
			<Point>
				<gx:drawOrder>1</gx:drawOrder>
				<coordinates>29.82835824879855,-20.31624506460121,0</coordinates>
			</Point>
			<Point>
				<gx:drawOrder>1</gx:drawOrder>
				<coordinates>29.82942522990506,-20.31409147458194,0</coordinates>
			</Point>
			<Point>
				<gx:drawOrder>1</gx:drawOrder>
				<coordinates>29.83419237696608,-20.3164098291618,0</coordinates>
			</Point>
			<Point>
				<gx:drawOrder>1</gx:drawOrder>
				<coordinates>29.83329836900978,-20.32194938302865,0</coordinates>
			</Point>
			<Point>
				<gx:drawOrder>1</gx:drawOrder>
				<coordinates>29.82989312882269,-20.32009400352131,0</coordinates>
			</Point>
			<Point>
				<gx:drawOrder>1</gx:drawOrder>
				<coordinates>29.83530396355086,-20.30322571255812,0</coordinates>
			</Point>
			<Point>
				<gx:drawOrder>1</gx:drawOrder>
				<coordinates>29.83145612506776,-20.30200765109983,0</coordinates>
			</Point>
			<Point>
				<gx:drawOrder>1</gx:drawOrder>
				<coordinates>29.83603714681938,-20.30646576285671,0</coordinates>
			</Point>
			<Point>
				<gx:drawOrder>1</gx:drawOrder>
				<coordinates>29.8376465230309,-20.30255325129804,0</coordinates>
			</Point>
			<Point>
				<gx:drawOrder>1</gx:drawOrder>
				<coordinates>29.83395265654277,-20.31036257508879,0</coordinates>
			</Point>
			<Point>
				<gx:drawOrder>1</gx:drawOrder>
				<coordinates>29.83377415514387,-20.30684832711201,0</coordinates>
			</Point>
			<Point>
				<gx:drawOrder>1</gx:drawOrder>
				<coordinates>29.83128715778579,-20.30945150099654,0</coordinates>
			</Point>
			<Point>
				<gx:drawOrder>1</gx:drawOrder>
				<coordinates>29.83147769470949,-20.30487528992361,0</coordinates>
			</Point>
		</MultiGeometry>
		<atom:link rel="app" href="https://www.google.com/earth/about/versions/#earth-pro" title="Google Earth Pro 7.3.7.1094"></atom:link>
	</Placemark>
</Document>
</kml>
